[
  {
    "PostalCode": "1050",
    "City": "København K"
  },
  {
    "PostalCode": "1051",
    "City": "København K"
  },
  {
    "PostalCode": "1052",
    "City": "København K"
  },
  {
    "PostalCode": "1053",
    "City": "København K"
  },
  {
    "PostalCode": "1054",
    "City": "København K"
  },
  {
    "PostalCode": "1055",
    "City": "København K"
  },
  {
    "PostalCode": "1056",
    "City": "København K"
  },
  {
    "PostalCode": "1057",
    "City": "København K"
  },
  {
    "PostalCode": "1058",
    "City": "København K"
  },
  {
    "PostalCode": "1059",
    "City": "København K"
  },
  {
    "PostalCode": "1060",
    "City": "København K"
  },
  {
    "PostalCode": "1061",
    "City": "København K"
  },
  {
    "PostalCode": "1062",
    "City": "København K"
  },
  {
    "PostalCode": "1063",
    "City": "København K"
  },
  {
    "PostalCode": "1064",
    "City": "København K"
  },
  {
    "PostalCode": "1065",
    "City": "København K"
  },
  {
    "PostalCode": "1066",
    "City": "København K"
  },
  {
    "PostalCode": "1067",
    "City": "København K"
  },
  {
    "PostalCode": "1068",
    "City": "København K"
  },
  {
    "PostalCode": "1069",
    "City": "København K"
  },
  {
    "PostalCode": "1070",
    "City": "København K"
  },
  {
    "PostalCode": "1071",
    "City": "København K"
  },
  {
    "PostalCode": "1072",
    "City": "København K"
  },
  {
    "PostalCode": "1073",
    "City": "København K"
  },
  {
    "PostalCode": "1074",
    "City": "København K"
  },
  {
    "PostalCode": "1100",
    "City": "København K"
  },
  {
    "PostalCode": "1101",
    "City": "København K"
  },
  {
    "PostalCode": "1102",
    "City": "København K"
  },
  {
    "PostalCode": "1103",
    "City": "København K"
  },
  {
    "PostalCode": "1104",
    "City": "København K"
  },
  {
    "PostalCode": "1105",
    "City": "København K"
  },
  {
    "PostalCode": "1106",
    "City": "København K"
  },
  {
    "PostalCode": "1107",
    "City": "København K"
  },
  {
    "PostalCode": "1110",
    "City": "København K"
  },
  {
    "PostalCode": "1111",
    "City": "København K"
  },
  {
    "PostalCode": "1112",
    "City": "København K"
  },
  {
    "PostalCode": "1113",
    "City": "København K"
  },
  {
    "PostalCode": "1114",
    "City": "København K"
  },
  {
    "PostalCode": "1115",
    "City": "København K"
  },
  {
    "PostalCode": "1116",
    "City": "København K"
  },
  {
    "PostalCode": "1117",
    "City": "København K"
  },
  {
    "PostalCode": "1118",
    "City": "København K"
  },
  {
    "PostalCode": "1119",
    "City": "København K"
  },
  {
    "PostalCode": "1120",
    "City": "København K"
  },
  {
    "PostalCode": "1121",
    "City": "København K"
  },
  {
    "PostalCode": "1122",
    "City": "København K"
  },
  {
    "PostalCode": "1123",
    "City": "København K"
  },
  {
    "PostalCode": "1124",
    "City": "København K"
  },
  {
    "PostalCode": "1125",
    "City": "København K"
  },
  {
    "PostalCode": "1126",
    "City": "København K"
  },
  {
    "PostalCode": "1127",
    "City": "København K"
  },
  {
    "PostalCode": "1128",
    "City": "København K"
  },
  {
    "PostalCode": "1129",
    "City": "København K"
  },
  {
    "PostalCode": "1130",
    "City": "København K"
  },
  {
    "PostalCode": "1131",
    "City": "København K"
  },
  {
    "PostalCode": "1150",
    "City": "København K"
  },
  {
    "PostalCode": "1151",
    "City": "København K"
  },
  {
    "PostalCode": "1152",
    "City": "København K"
  },
  {
    "PostalCode": "1153",
    "City": "København K"
  },
  {
    "PostalCode": "1154",
    "City": "København K"
  },
  {
    "PostalCode": "1155",
    "City": "København K"
  },
  {
    "PostalCode": "1156",
    "City": "København K"
  },
  {
    "PostalCode": "1157",
    "City": "København K"
  },
  {
    "PostalCode": "1158",
    "City": "København K"
  },
  {
    "PostalCode": "1159",
    "City": "København K"
  },
  {
    "PostalCode": "1160",
    "City": "København K"
  },
  {
    "PostalCode": "1161",
    "City": "København K"
  },
  {
    "PostalCode": "1162",
    "City": "København K"
  },
  {
    "PostalCode": "1164",
    "City": "København K"
  },
  {
    "PostalCode": "1165",
    "City": "København K"
  },
  {
    "PostalCode": "1166",
    "City": "København K"
  },
  {
    "PostalCode": "1167",
    "City": "København K"
  },
  {
    "PostalCode": "1168",
    "City": "København K"
  },
  {
    "PostalCode": "1169",
    "City": "København K"
  },
  {
    "PostalCode": "1170",
    "City": "København K"
  },
  {
    "PostalCode": "1171",
    "City": "København K"
  },
  {
    "PostalCode": "1172",
    "City": "København K"
  },
  {
    "PostalCode": "1173",
    "City": "København K"
  },
  {
    "PostalCode": "1174",
    "City": "København K"
  },
  {
    "PostalCode": "1175",
    "City": "København K"
  },
  {
    "PostalCode": "1200",
    "City": "København K"
  },
  {
    "PostalCode": "1201",
    "City": "København K"
  },
  {
    "PostalCode": "1202",
    "City": "København K"
  },
  {
    "PostalCode": "1203",
    "City": "København K"
  },
  {
    "PostalCode": "1204",
    "City": "København K"
  },
  {
    "PostalCode": "1205",
    "City": "København K"
  },
  {
    "PostalCode": "1206",
    "City": "København K"
  },
  {
    "PostalCode": "1207",
    "City": "København K"
  },
  {
    "PostalCode": "1208",
    "City": "København K"
  },
  {
    "PostalCode": "1209",
    "City": "København K"
  },
  {
    "PostalCode": "1210",
    "City": "København K"
  },
  {
    "PostalCode": "1211",
    "City": "København K"
  },
  {
    "PostalCode": "1212",
    "City": "København K"
  },
  {
    "PostalCode": "1213",
    "City": "København K"
  },
  {
    "PostalCode": "1214",
    "City": "København K"
  },
  {
    "PostalCode": "1215",
    "City": "København K"
  },
  {
    "PostalCode": "1216",
    "City": "København K"
  },
  {
    "PostalCode": "1218",
    "City": "København K"
  },
  {
    "PostalCode": "1219",
    "City": "København K"
  },
  {
    "PostalCode": "1220",
    "City": "København K"
  },
  {
    "PostalCode": "1221",
    "City": "København K"
  },
  {
    "PostalCode": "1250",
    "City": "København K"
  },
  {
    "PostalCode": "1251",
    "City": "København K"
  },
  {
    "PostalCode": "1252",
    "City": "København K"
  },
  {
    "PostalCode": "1253",
    "City": "København K"
  },
  {
    "PostalCode": "1254",
    "City": "København K"
  },
  {
    "PostalCode": "1255",
    "City": "København K"
  },
  {
    "PostalCode": "1256",
    "City": "København K"
  },
  {
    "PostalCode": "1257",
    "City": "København K"
  },
  {
    "PostalCode": "1259",
    "City": "København K"
  },
  {
    "PostalCode": "1260",
    "City": "København K"
  },
  {
    "PostalCode": "1261",
    "City": "København K"
  },
  {
    "PostalCode": "1263",
    "City": "København K"
  },
  {
    "PostalCode": "1264",
    "City": "København K"
  },
  {
    "PostalCode": "1265",
    "City": "København K"
  },
  {
    "PostalCode": "1266",
    "City": "København K"
  },
  {
    "PostalCode": "1267",
    "City": "København K"
  },
  {
    "PostalCode": "1268",
    "City": "København K"
  },
  {
    "PostalCode": "1270",
    "City": "København K"
  },
  {
    "PostalCode": "1271",
    "City": "København K"
  },
  {
    "PostalCode": "1300",
    "City": "København K"
  },
  {
    "PostalCode": "1301",
    "City": "København K"
  },
  {
    "PostalCode": "1302",
    "City": "København K"
  },
  {
    "PostalCode": "1303",
    "City": "København K"
  },
  {
    "PostalCode": "1304",
    "City": "København K"
  },
  {
    "PostalCode": "1306",
    "City": "København K"
  },
  {
    "PostalCode": "1307",
    "City": "København K"
  },
  {
    "PostalCode": "1308",
    "City": "København K"
  },
  {
    "PostalCode": "1309",
    "City": "København K"
  },
  {
    "PostalCode": "1310",
    "City": "København K"
  },
  {
    "PostalCode": "1311",
    "City": "København K"
  },
  {
    "PostalCode": "1312",
    "City": "København K"
  },
  {
    "PostalCode": "1313",
    "City": "København K"
  },
  {
    "PostalCode": "1314",
    "City": "København K"
  },
  {
    "PostalCode": "1315",
    "City": "København K"
  },
  {
    "PostalCode": "1316",
    "City": "København K"
  },
  {
    "PostalCode": "1317",
    "City": "København K"
  },
  {
    "PostalCode": "1318",
    "City": "København K"
  },
  {
    "PostalCode": "1319",
    "City": "København K"
  },
  {
    "PostalCode": "1320",
    "City": "København K"
  },
  {
    "PostalCode": "1321",
    "City": "København K"
  },
  {
    "PostalCode": "1322",
    "City": "København K"
  },
  {
    "PostalCode": "1323",
    "City": "København K"
  },
  {
    "PostalCode": "1324",
    "City": "København K"
  },
  {
    "PostalCode": "1325",
    "City": "København K"
  },
  {
    "PostalCode": "1326",
    "City": "København K"
  },
  {
    "PostalCode": "1327",
    "City": "København K"
  },
  {
    "PostalCode": "1328",
    "City": "København K"
  },
  {
    "PostalCode": "1329",
    "City": "København K"
  },
  {
    "PostalCode": "1350",
    "City": "København K"
  },
  {
    "PostalCode": "1352",
    "City": "København K"
  },
  {
    "PostalCode": "1353",
    "City": "København K"
  },
  {
    "PostalCode": "1354",
    "City": "København K"
  },
  {
    "PostalCode": "1355",
    "City": "København K"
  },
  {
    "PostalCode": "1356",
    "City": "København K"
  },
  {
    "PostalCode": "1357",
    "City": "København K"
  },
  {
    "PostalCode": "1358",
    "City": "København K"
  },
  {
    "PostalCode": "1359",
    "City": "København K"
  },
  {
    "PostalCode": "1360",
    "City": "København K"
  },
  {
    "PostalCode": "1361",
    "City": "København K"
  },
  {
    "PostalCode": "1362",
    "City": "København K"
  },
  {
    "PostalCode": "1363",
    "City": "København K"
  },
  {
    "PostalCode": "1364",
    "City": "København K"
  },
  {
    "PostalCode": "1365",
    "City": "København K"
  },
  {
    "PostalCode": "1366",
    "City": "København K"
  },
  {
    "PostalCode": "1367",
    "City": "København K"
  },
  {
    "PostalCode": "1368",
    "City": "København K"
  },
  {
    "PostalCode": "1369",
    "City": "København K"
  },
  {
    "PostalCode": "1370",
    "City": "København K"
  },
  {
    "PostalCode": "1371",
    "City": "København K"
  },
  {
    "PostalCode": "1400",
    "City": "København K"
  },
  {
    "PostalCode": "1401",
    "City": "København K"
  },
  {
    "PostalCode": "1402",
    "City": "København K"
  },
  {
    "PostalCode": "1403",
    "City": "København K"
  },
  {
    "PostalCode": "1406",
    "City": "København K"
  },
  {
    "PostalCode": "1407",
    "City": "København K"
  },
  {
    "PostalCode": "1408",
    "City": "København K"
  },
  {
    "PostalCode": "1409",
    "City": "København K"
  },
  {
    "PostalCode": "1410",
    "City": "København K"
  },
  {
    "PostalCode": "1411",
    "City": "København K"
  },
  {
    "PostalCode": "1412",
    "City": "København K"
  },
  {
    "PostalCode": "1413",
    "City": "København K"
  },
  {
    "PostalCode": "1414",
    "City": "København K"
  },
  {
    "PostalCode": "1415",
    "City": "København K"
  },
  {
    "PostalCode": "1416",
    "City": "København K"
  },
  {
    "PostalCode": "1417",
    "City": "København K"
  },
  {
    "PostalCode": "1418",
    "City": "København K"
  },
  {
    "PostalCode": "1419",
    "City": "København K"
  },
  {
    "PostalCode": "1420",
    "City": "København K"
  },
  {
    "PostalCode": "1421",
    "City": "København K"
  },
  {
    "PostalCode": "1422",
    "City": "København K"
  },
  {
    "PostalCode": "1423",
    "City": "København K"
  },
  {
    "PostalCode": "1424",
    "City": "København K"
  },
  {
    "PostalCode": "1425",
    "City": "København K"
  },
  {
    "PostalCode": "1426",
    "City": "København K"
  },
  {
    "PostalCode": "1427",
    "City": "København K"
  },
  {
    "PostalCode": "1428",
    "City": "København K"
  },
  {
    "PostalCode": "1429",
    "City": "København K"
  },
  {
    "PostalCode": "1430",
    "City": "København K"
  },
  {
    "PostalCode": "1432",
    "City": "København K"
  },
  {
    "PostalCode": "1433",
    "City": "København K"
  },
  {
    "PostalCode": "1434",
    "City": "København K"
  },
  {
    "PostalCode": "1435",
    "City": "København K"
  },
  {
    "PostalCode": "1436",
    "City": "København K"
  },
  {
    "PostalCode": "1437",
    "City": "København K"
  },
  {
    "PostalCode": "1438",
    "City": "København K"
  },
  {
    "PostalCode": "1439",
    "City": "København K"
  },
  {
    "PostalCode": "1440",
    "City": "København K"
  },
  {
    "PostalCode": "1441",
    "City": "København K"
  },
  {
    "PostalCode": "1450",
    "City": "København K"
  },
  {
    "PostalCode": "1451",
    "City": "København K"
  },
  {
    "PostalCode": "1452",
    "City": "København K"
  },
  {
    "PostalCode": "1453",
    "City": "København K"
  },
  {
    "PostalCode": "1454",
    "City": "København K"
  },
  {
    "PostalCode": "1455",
    "City": "København K"
  },
  {
    "PostalCode": "1456",
    "City": "København K"
  },
  {
    "PostalCode": "1457",
    "City": "København K"
  },
  {
    "PostalCode": "1458",
    "City": "København K"
  },
  {
    "PostalCode": "1459",
    "City": "København K"
  },
  {
    "PostalCode": "1460",
    "City": "København K"
  },
  {
    "PostalCode": "1461",
    "City": "København K"
  },
  {
    "PostalCode": "1462",
    "City": "København K"
  },
  {
    "PostalCode": "1463",
    "City": "København K"
  },
  {
    "PostalCode": "1464",
    "City": "København K"
  },
  {
    "PostalCode": "1465",
    "City": "København K"
  },
  {
    "PostalCode": "1466",
    "City": "København K"
  },
  {
    "PostalCode": "1467",
    "City": "København K"
  },
  {
    "PostalCode": "1468",
    "City": "København K"
  },
  {
    "PostalCode": "1470",
    "City": "København K"
  },
  {
    "PostalCode": "1471",
    "City": "København K"
  },
  {
    "PostalCode": "1472",
    "City": "København K"
  },
  {
    "PostalCode": "1473",
    "City": "København K"
  },
  {
    "PostalCode": "1550",
    "City": "København V"
  },
  {
    "PostalCode": "1551",
    "City": "København V"
  },
  {
    "PostalCode": "1552",
    "City": "København V"
  },
  {
    "PostalCode": "1553",
    "City": "København V"
  },
  {
    "PostalCode": "1554",
    "City": "København V"
  },
  {
    "PostalCode": "1555",
    "City": "København V"
  },
  {
    "PostalCode": "1556",
    "City": "København V"
  },
  {
    "PostalCode": "1557",
    "City": "København V"
  },
  {
    "PostalCode": "1558",
    "City": "København V"
  },
  {
    "PostalCode": "1559",
    "City": "København V"
  },
  {
    "PostalCode": "1560",
    "City": "København V"
  },
  {
    "PostalCode": "1561",
    "City": "København V"
  },
  {
    "PostalCode": "1562",
    "City": "København V"
  },
  {
    "PostalCode": "1563",
    "City": "København V"
  },
  {
    "PostalCode": "1564",
    "City": "København V"
  },
  {
    "PostalCode": "1567",
    "City": "København V"
  },
  {
    "PostalCode": "1568",
    "City": "København V"
  },
  {
    "PostalCode": "1569",
    "City": "København V"
  },
  {
    "PostalCode": "1570",
    "City": "København V"
  },
  {
    "PostalCode": "1571",
    "City": "København V"
  },
  {
    "PostalCode": "1572",
    "City": "København V"
  },
  {
    "PostalCode": "1573",
    "City": "København V"
  },
  {
    "PostalCode": "1574",
    "City": "København V"
  },
  {
    "PostalCode": "1575",
    "City": "København V"
  },
  {
    "PostalCode": "1576",
    "City": "København V"
  },
  {
    "PostalCode": "1577",
    "City": "København V"
  },
  {
    "PostalCode": "1600",
    "City": "København V"
  },
  {
    "PostalCode": "1601",
    "City": "København V"
  },
  {
    "PostalCode": "1602",
    "City": "København V"
  },
  {
    "PostalCode": "1603",
    "City": "København V"
  },
  {
    "PostalCode": "1604",
    "City": "København V"
  },
  {
    "PostalCode": "1605",
    "City": "København V"
  },
  {
    "PostalCode": "1606",
    "City": "København V"
  },
  {
    "PostalCode": "1607",
    "City": "København V"
  },
  {
    "PostalCode": "1608",
    "City": "København V"
  },
  {
    "PostalCode": "1609",
    "City": "København V"
  },
  {
    "PostalCode": "1610",
    "City": "København V"
  },
  {
    "PostalCode": "1611",
    "City": "København V"
  },
  {
    "PostalCode": "1612",
    "City": "København V"
  },
  {
    "PostalCode": "1613",
    "City": "København V"
  },
  {
    "PostalCode": "1614",
    "City": "København V"
  },
  {
    "PostalCode": "1615",
    "City": "København V"
  },
  {
    "PostalCode": "1616",
    "City": "København V"
  },
  {
    "PostalCode": "1617",
    "City": "København V"
  },
  {
    "PostalCode": "1618",
    "City": "København V"
  },
  {
    "PostalCode": "1619",
    "City": "København V"
  },
  {
    "PostalCode": "1620",
    "City": "København V"
  },
  {
    "PostalCode": "1621",
    "City": "København V"
  },
  {
    "PostalCode": "1622",
    "City": "København V"
  },
  {
    "PostalCode": "1623",
    "City": "København V"
  },
  {
    "PostalCode": "1624",
    "City": "København V"
  },
  {
    "PostalCode": "1631",
    "City": "København V"
  },
  {
    "PostalCode": "1632",
    "City": "København V"
  },
  {
    "PostalCode": "1633",
    "City": "København V"
  },
  {
    "PostalCode": "1634",
    "City": "København V"
  },
  {
    "PostalCode": "1635",
    "City": "København V"
  },
  {
    "PostalCode": "1650",
    "City": "København V"
  },
  {
    "PostalCode": "1651",
    "City": "København V"
  },
  {
    "PostalCode": "1652",
    "City": "København V"
  },
  {
    "PostalCode": "1653",
    "City": "København V"
  },
  {
    "PostalCode": "1654",
    "City": "København V"
  },
  {
    "PostalCode": "1655",
    "City": "København V"
  },
  {
    "PostalCode": "1656",
    "City": "København V"
  },
  {
    "PostalCode": "1657",
    "City": "København V"
  },
  {
    "PostalCode": "1658",
    "City": "København V"
  },
  {
    "PostalCode": "1659",
    "City": "København V"
  },
  {
    "PostalCode": "1660",
    "City": "København V"
  },
  {
    "PostalCode": "1661",
    "City": "København V"
  },
  {
    "PostalCode": "1662",
    "City": "København V"
  },
  {
    "PostalCode": "1663",
    "City": "København V"
  },
  {
    "PostalCode": "1664",
    "City": "København V"
  },
  {
    "PostalCode": "1665",
    "City": "København V"
  },
  {
    "PostalCode": "1666",
    "City": "København V"
  },
  {
    "PostalCode": "1667",
    "City": "København V"
  },
  {
    "PostalCode": "1668",
    "City": "København V"
  },
  {
    "PostalCode": "1669",
    "City": "København V"
  },
  {
    "PostalCode": "1670",
    "City": "København V"
  },
  {
    "PostalCode": "1671",
    "City": "København V"
  },
  {
    "PostalCode": "1672",
    "City": "København V"
  },
  {
    "PostalCode": "1673",
    "City": "København V"
  },
  {
    "PostalCode": "1674",
    "City": "København V"
  },
  {
    "PostalCode": "1675",
    "City": "København V"
  },
  {
    "PostalCode": "1676",
    "City": "København V"
  },
  {
    "PostalCode": "1677",
    "City": "København V"
  },
  {
    "PostalCode": "1699",
    "City": "København V"
  },
  {
    "PostalCode": "1700",
    "City": "København V"
  },
  {
    "PostalCode": "1701",
    "City": "København V"
  },
  {
    "PostalCode": "1702",
    "City": "København V"
  },
  {
    "PostalCode": "1703",
    "City": "København V"
  },
  {
    "PostalCode": "1704",
    "City": "København V"
  },
  {
    "PostalCode": "1705",
    "City": "København V"
  },
  {
    "PostalCode": "1706",
    "City": "København V"
  },
  {
    "PostalCode": "1707",
    "City": "København V"
  },
  {
    "PostalCode": "1708",
    "City": "København V"
  },
  {
    "PostalCode": "1709",
    "City": "København V"
  },
  {
    "PostalCode": "1710",
    "City": "København V"
  },
  {
    "PostalCode": "1711",
    "City": "København V"
  },
  {
    "PostalCode": "1712",
    "City": "København V"
  },
  {
    "PostalCode": "1714",
    "City": "København V"
  },
  {
    "PostalCode": "1715",
    "City": "København V"
  },
  {
    "PostalCode": "1716",
    "City": "København V"
  },
  {
    "PostalCode": "1717",
    "City": "København V"
  },
  {
    "PostalCode": "1718",
    "City": "København V"
  },
  {
    "PostalCode": "1719",
    "City": "København V"
  },
  {
    "PostalCode": "1720",
    "City": "København V"
  },
  {
    "PostalCode": "1721",
    "City": "København V"
  },
  {
    "PostalCode": "1722",
    "City": "København V"
  },
  {
    "PostalCode": "1723",
    "City": "København V"
  },
  {
    "PostalCode": "1724",
    "City": "København V"
  },
  {
    "PostalCode": "1725",
    "City": "København V"
  },
  {
    "PostalCode": "1726",
    "City": "København V"
  },
  {
    "PostalCode": "1727",
    "City": "København V"
  },
  {
    "PostalCode": "1728",
    "City": "København V"
  },
  {
    "PostalCode": "1729",
    "City": "København V"
  },
  {
    "PostalCode": "1730",
    "City": "København V"
  },
  {
    "PostalCode": "1731",
    "City": "København V"
  },
  {
    "PostalCode": "1732",
    "City": "København V"
  },
  {
    "PostalCode": "1733",
    "City": "København V"
  },
  {
    "PostalCode": "1734",
    "City": "København V"
  },
  {
    "PostalCode": "1735",
    "City": "København V"
  },
  {
    "PostalCode": "1736",
    "City": "København V"
  },
  {
    "PostalCode": "1737",
    "City": "København V"
  },
  {
    "PostalCode": "1738",
    "City": "København V"
  },
  {
    "PostalCode": "1739",
    "City": "København V"
  },
  {
    "PostalCode": "1749",
    "City": "København V"
  },
  {
    "PostalCode": "1750",
    "City": "København V"
  },
  {
    "PostalCode": "1751",
    "City": "København V"
  },
  {
    "PostalCode": "1752",
    "City": "København V"
  },
  {
    "PostalCode": "1753",
    "City": "København V"
  },
  {
    "PostalCode": "1754",
    "City": "København V"
  },
  {
    "PostalCode": "1755",
    "City": "København V"
  },
  {
    "PostalCode": "1756",
    "City": "København V"
  },
  {
    "PostalCode": "1757",
    "City": "København V"
  },
  {
    "PostalCode": "1758",
    "City": "København V"
  },
  {
    "PostalCode": "1759",
    "City": "København V"
  },
  {
    "PostalCode": "1760",
    "City": "København V"
  },
  {
    "PostalCode": "1761",
    "City": "København V"
  },
  {
    "PostalCode": "1762",
    "City": "København V"
  },
  {
    "PostalCode": "1763",
    "City": "København V"
  },
  {
    "PostalCode": "1764",
    "City": "København V"
  },
  {
    "PostalCode": "1765",
    "City": "København V"
  },
  {
    "PostalCode": "1766",
    "City": "København V"
  },
  {
    "PostalCode": "1770",
    "City": "København V"
  },
  {
    "PostalCode": "1771",
    "City": "København V"
  },
  {
    "PostalCode": "1772",
    "City": "København V"
  },
  {
    "PostalCode": "1773",
    "City": "København V"
  },
  {
    "PostalCode": "1774",
    "City": "København V"
  },
  {
    "PostalCode": "1775",
    "City": "København V"
  },
  {
    "PostalCode": "1777",
    "City": "København V"
  },
  {
    "PostalCode": "1799",
    "City": "København V"
  },
  {
    "PostalCode": "1800",
    "City": "Frederiksberg C"
  },
  {
    "PostalCode": "1801",
    "City": "Frederiksberg C"
  },
  {
    "PostalCode": "1802",
    "City": "Frederiksberg C"
  },
  {
    "PostalCode": "1803",
    "City": "Frederiksberg C"
  },
  {
    "PostalCode": "1804",
    "City": "Frederiksberg C"
  },
  {
    "PostalCode": "1805",
    "City": "Frederiksberg C"
  },
  {
    "PostalCode": "1806",
    "City": "Frederiksberg C"
  },
  {
    "PostalCode": "1807",
    "City": "Frederiksberg C"
  },
  {
    "PostalCode": "1808",
    "City": "Frederiksberg C"
  },
  {
    "PostalCode": "1809",
    "City": "Frederiksberg C"
  },
  {
    "PostalCode": "1810",
    "City": "Frederiksberg C"
  },
  {
    "PostalCode": "1811",
    "City": "Frederiksberg C"
  },
  {
    "PostalCode": "1812",
    "City": "Frederiksberg C"
  },
  {
    "PostalCode": "1813",
    "City": "Frederiksberg C"
  },
  {
    "PostalCode": "1814",
    "City": "Frederiksberg C"
  },
  {
    "PostalCode": "1815",
    "City": "Frederiksberg C"
  },
  {
    "PostalCode": "1816",
    "City": "Frederiksberg C"
  },
  {
    "PostalCode": "1817",
    "City": "Frederiksberg C"
  },
  {
    "PostalCode": "1818",
    "City": "Frederiksberg C"
  },
  {
    "PostalCode": "1819",
    "City": "Frederiksberg C"
  },
  {
    "PostalCode": "1820",
    "City": "Frederiksberg C"
  },
  {
    "PostalCode": "1822",
    "City": "Frederiksberg C"
  },
  {
    "PostalCode": "1823",
    "City": "Frederiksberg C"
  },
  {
    "PostalCode": "1824",
    "City": "Frederiksberg C"
  },
  {
    "PostalCode": "1825",
    "City": "Frederiksberg C"
  },
  {
    "PostalCode": "1826",
    "City": "Frederiksberg C"
  },
  {
    "PostalCode": "1827",
    "City": "Frederiksberg C"
  },
  {
    "PostalCode": "1828",
    "City": "Frederiksberg C"
  },
  {
    "PostalCode": "1829",
    "City": "Frederiksberg C"
  },
  {
    "PostalCode": "1850",
    "City": "Frederiksberg C"
  },
  {
    "PostalCode": "1851",
    "City": "Frederiksberg C"
  },
  {
    "PostalCode": "1852",
    "City": "Frederiksberg C"
  },
  {
    "PostalCode": "1853",
    "City": "Frederiksberg C"
  },
  {
    "PostalCode": "1854",
    "City": "Frederiksberg C"
  },
  {
    "PostalCode": "1855",
    "City": "Frederiksberg C"
  },
  {
    "PostalCode": "1856",
    "City": "Frederiksberg C"
  },
  {
    "PostalCode": "1857",
    "City": "Frederiksberg C"
  },
  {
    "PostalCode": "1860",
    "City": "Frederiksberg C"
  },
  {
    "PostalCode": "1861",
    "City": "Frederiksberg C"
  },
  {
    "PostalCode": "1862",
    "City": "Frederiksberg C"
  },
  {
    "PostalCode": "1863",
    "City": "Frederiksberg C"
  },
  {
    "PostalCode": "1864",
    "City": "Frederiksberg C"
  },
  {
    "PostalCode": "1865",
    "City": "Frederiksberg C"
  },
  {
    "PostalCode": "1866",
    "City": "Frederiksberg C"
  },
  {
    "PostalCode": "1867",
    "City": "Frederiksberg C"
  },
  {
    "PostalCode": "1868",
    "City": "Frederiksberg C"
  },
  {
    "PostalCode": "1870",
    "City": "Frederiksberg C"
  },
  {
    "PostalCode": "1871",
    "City": "Frederiksberg C"
  },
  {
    "PostalCode": "1872",
    "City": "Frederiksberg C"
  },
  {
    "PostalCode": "1873",
    "City": "Frederiksberg C"
  },
  {
    "PostalCode": "1874",
    "City": "Frederiksberg C"
  },
  {
    "PostalCode": "1875",
    "City": "Frederiksberg C"
  },
  {
    "PostalCode": "1876",
    "City": "Frederiksberg C"
  },
  {
    "PostalCode": "1877",
    "City": "Frederiksberg C"
  },
  {
    "PostalCode": "1878",
    "City": "Frederiksberg C"
  },
  {
    "PostalCode": "1879",
    "City": "Frederiksberg C"
  },
  {
    "PostalCode": "1900",
    "City": "Frederiksberg C"
  },
  {
    "PostalCode": "1901",
    "City": "Frederiksberg C"
  },
  {
    "PostalCode": "1902",
    "City": "Frederiksberg C"
  },
  {
    "PostalCode": "1903",
    "City": "Frederiksberg C"
  },
  {
    "PostalCode": "1904",
    "City": "Frederiksberg C"
  },
  {
    "PostalCode": "1905",
    "City": "Frederiksberg C"
  },
  {
    "PostalCode": "1906",
    "City": "Frederiksberg C"
  },
  {
    "PostalCode": "1908",
    "City": "Frederiksberg C"
  },
  {
    "PostalCode": "1909",
    "City": "Frederiksberg C"
  },
  {
    "PostalCode": "1910",
    "City": "Frederiksberg C"
  },
  {
    "PostalCode": "1911",
    "City": "Frederiksberg C"
  },
  {
    "PostalCode": "1912",
    "City": "Frederiksberg C"
  },
  {
    "PostalCode": "1913",
    "City": "Frederiksberg C"
  },
  {
    "PostalCode": "1914",
    "City": "Frederiksberg C"
  },
  {
    "PostalCode": "1915",
    "City": "Frederiksberg C"
  },
  {
    "PostalCode": "1916",
    "City": "Frederiksberg C"
  },
  {
    "PostalCode": "1917",
    "City": "Frederiksberg C"
  },
  {
    "PostalCode": "1920",
    "City": "Frederiksberg C"
  },
  {
    "PostalCode": "1921",
    "City": "Frederiksberg C"
  },
  {
    "PostalCode": "1922",
    "City": "Frederiksberg C"
  },
  {
    "PostalCode": "1923",
    "City": "Frederiksberg C"
  },
  {
    "PostalCode": "1924",
    "City": "Frederiksberg C"
  },
  {
    "PostalCode": "1925",
    "City": "Frederiksberg C"
  },
  {
    "PostalCode": "1926",
    "City": "Frederiksberg C"
  },
  {
    "PostalCode": "1927",
    "City": "Frederiksberg C"
  },
  {
    "PostalCode": "1928",
    "City": "Frederiksberg C"
  },
  {
    "PostalCode": "1950",
    "City": "Frederiksberg C"
  },
  {
    "PostalCode": "1951",
    "City": "Frederiksberg C"
  },
  {
    "PostalCode": "1952",
    "City": "Frederiksberg C"
  },
  {
    "PostalCode": "1953",
    "City": "Frederiksberg C"
  },
  {
    "PostalCode": "1954",
    "City": "Frederiksberg C"
  },
  {
    "PostalCode": "1955",
    "City": "Frederiksberg C"
  },
  {
    "PostalCode": "1956",
    "City": "Frederiksberg C"
  },
  {
    "PostalCode": "1957",
    "City": "Frederiksberg C"
  },
  {
    "PostalCode": "1958",
    "City": "Frederiksberg C"
  },
  {
    "PostalCode": "1959",
    "City": "Frederiksberg C"
  },
  {
    "PostalCode": "1960",
    "City": "Frederiksberg C"
  },
  {
    "PostalCode": "1961",
    "City": "Frederiksberg C"
  },
  {
    "PostalCode": "1962",
    "City": "Frederiksberg C"
  },
  {
    "PostalCode": "1963",
    "City": "Frederiksberg C"
  },
  {
    "PostalCode": "1964",
    "City": "Frederiksberg C"
  },
  {
    "PostalCode": "1965",
    "City": "Frederiksberg C"
  },
  {
    "PostalCode": "1966",
    "City": "Frederiksberg C"
  },
  {
    "PostalCode": "1967",
    "City": "Frederiksberg C"
  },
  {
    "PostalCode": "1970",
    "City": "Frederiksberg C"
  },
  {
    "PostalCode": "1971",
    "City": "Frederiksberg C"
  },
  {
    "PostalCode": "1972",
    "City": "Frederiksberg C"
  },
  {
    "PostalCode": "1973",
    "City": "Frederiksberg C"
  },
  {
    "PostalCode": "1974",
    "City": "Frederiksberg C"
  },
  {
    "PostalCode": "2000",
    "City": "Frederiksberg"
  },
  {
    "PostalCode": "2100",
    "City": "København Ø"
  },
  {
    "PostalCode": "2150",
    "City": "Nordhavn"
  },
  {
    "PostalCode": "2200",
    "City": "København N"
  },
  {
    "PostalCode": "2300",
    "City": "København S"
  },
  {
    "PostalCode": "2400",
    "City": "København NV"
  },
  {
    "PostalCode": "2450",
    "City": "København SV"
  },
  {
    "PostalCode": "2500",
    "City": "Valby"
  },
  {
    "PostalCode": "2600",
    "City": "Glostrup"
  },
  {
    "PostalCode": "2605",
    "City": "Brøndby"
  },
  {
    "PostalCode": "2610",
    "City": "Rødovre"
  },
  {
    "PostalCode": "2620",
    "City": "Albertslund"
  },
  {
    "PostalCode": "2625",
    "City": "Vallensbæk"
  },
  {
    "PostalCode": "2630",
    "City": "Taastrup"
  },
  {
    "PostalCode": "2635",
    "City": "Ishøj"
  },
  {
    "PostalCode": "2640",
    "City": "Hedehusene"
  },
  {
    "PostalCode": "2650",
    "City": "Hvidovre"
  },
  {
    "PostalCode": "2660",
    "City": "Brøndby Strand"
  },
  {
    "PostalCode": "2665",
    "City": "Vallensbæk Strand"
  },
  {
    "PostalCode": "2670",
    "City": "Greve"
  },
  {
    "PostalCode": "2680",
    "City": "Solrød Strand"
  },
  {
    "PostalCode": "2690",
    "City": "Karlslunde"
  },
  {
    "PostalCode": "2700",
    "City": "Brønshøj"
  },
  {
    "PostalCode": "2720",
    "City": "Vanløse"
  },
  {
    "PostalCode": "2730",
    "City": "Herlev"
  },
  {
    "PostalCode": "2740",
    "City": "Skovlunde"
  },
  {
    "PostalCode": "2750",
    "City": "Ballerup"
  },
  {
    "PostalCode": "2760",
    "City": "Måløv"
  },
  {
    "PostalCode": "2765",
    "City": "Smørum"
  },
  {
    "PostalCode": "2770",
    "City": "Kastrup"
  },
  {
    "PostalCode": "2791",
    "City": "Dragør"
  },
  {
    "PostalCode": "2800",
    "City": "Kongens Lyngby"
  },
  {
    "PostalCode": "2820",
    "City": "Gentofte"
  },
  {
    "PostalCode": "2830",
    "City": "Virum"
  },
  {
    "PostalCode": "2840",
    "City": "Holte"
  },
  {
    "PostalCode": "2850",
    "City": "Nærum"
  },
  {
    "PostalCode": "2860",
    "City": "Søborg"
  },
  {
    "PostalCode": "2870",
    "City": "Dyssegård"
  },
  {
    "PostalCode": "2880",
    "City": "Bagsværd"
  },
  {
    "PostalCode": "2900",
    "City": "Hellerup"
  },
  {
    "PostalCode": "2920",
    "City": "Charlottenlund"
  },
  {
    "PostalCode": "2930",
    "City": "Klampenborg"
  },
  {
    "PostalCode": "2942",
    "City": "Skodsborg"
  },
  {
    "PostalCode": "2950",
    "City": "Vedbæk"
  },
  {
    "PostalCode": "2960",
    "City": "Rungsted Kyst"
  },
  {
    "PostalCode": "2970",
    "City": "Hørsholm"
  },
  {
    "PostalCode": "2980",
    "City": "Kokkedal"
  },
  {
    "PostalCode": "2990",
    "City": "Nivå"
  },
  {
    "PostalCode": "3000",
    "City": "Helsingør"
  },
  {
    "PostalCode": "3050",
    "City": "Humlebæk"
  },
  {
    "PostalCode": "3060",
    "City": "Espergærde"
  },
  {
    "PostalCode": "3070",
    "City": "Snekkersten"
  },
  {
    "PostalCode": "3080",
    "City": "Tikøb"
  },
  {
    "PostalCode": "3100",
    "City": "Hornbæk"
  },
  {
    "PostalCode": "3120",
    "City": "Dronningmølle"
  },
  {
    "PostalCode": "3140",
    "City": "Ålsgårde"
  },
  {
    "PostalCode": "3150",
    "City": "Hellebæk"
  },
  {
    "PostalCode": "3200",
    "City": "Helsinge"
  },
  {
    "PostalCode": "3210",
    "City": "Vejby"
  },
  {
    "PostalCode": "3220",
    "City": "Tisvildeleje"
  },
  {
    "PostalCode": "3230",
    "City": "Græsted"
  },
  {
    "PostalCode": "3250",
    "City": "Gilleleje"
  },
  {
    "PostalCode": "3300",
    "City": "Frederiksværk"
  },
  {
    "PostalCode": "3310",
    "City": "Ølsted"
  },
  {
    "PostalCode": "3320",
    "City": "Skævinge"
  },
  {
    "PostalCode": "3330",
    "City": "Gørløse"
  },
  {
    "PostalCode": "3360",
    "City": "Liseleje"
  },
  {
    "PostalCode": "3370",
    "City": "Melby"
  },
  {
    "PostalCode": "3390",
    "City": "Hundested"
  },
  {
    "PostalCode": "3400",
    "City": "Hillerød"
  },
  {
    "PostalCode": "3450",
    "City": "Allerød"
  },
  {
    "PostalCode": "3460",
    "City": "Birkerød"
  },
  {
    "PostalCode": "3480",
    "City": "Fredensborg"
  },
  {
    "PostalCode": "3490",
    "City": "Kvistgård"
  },
  {
    "PostalCode": "3500",
    "City": "Værløse"
  },
  {
    "PostalCode": "3520",
    "City": "Farum"
  },
  {
    "PostalCode": "3540",
    "City": "Lynge"
  },
  {
    "PostalCode": "3550",
    "City": "Slangerup"
  },
  {
    "PostalCode": "3600",
    "City": "Frederikssund"
  },
  {
    "PostalCode": "3630",
    "City": "Jægerspris"
  },
  {
    "PostalCode": "3650",
    "City": "Ølstykke"
  },
  {
    "PostalCode": "3660",
    "City": "Stenløse"
  },
  {
    "PostalCode": "3670",
    "City": "Veksø Sjælland"
  },
  {
    "PostalCode": "3700",
    "City": "Rønne"
  },
  {
    "PostalCode": "3720",
    "City": "Aakirkeby"
  },
  {
    "PostalCode": "3730",
    "City": "Nexø"
  },
  {
    "PostalCode": "3740",
    "City": "Svaneke"
  },
  {
    "PostalCode": "3751",
    "City": "Østermarie"
  },
  {
    "PostalCode": "3760",
    "City": "Gudhjem"
  },
  {
    "PostalCode": "3770",
    "City": "Allinge"
  },
  {
    "PostalCode": "3782",
    "City": "Klemensker"
  },
  {
    "PostalCode": "3790",
    "City": "Hasle"
  },
  {
    "PostalCode": "4000",
    "City": "Roskilde"
  },
  {
    "PostalCode": "4030",
    "City": "Tune"
  },
  {
    "PostalCode": "4040",
    "City": "Jyllinge"
  },
  {
    "PostalCode": "4050",
    "City": "Skibby"
  },
  {
    "PostalCode": "4060",
    "City": "Kirke Såby"
  },
  {
    "PostalCode": "4070",
    "City": "Kirke Hyllinge"
  },
  {
    "PostalCode": "4100",
    "City": "Ringsted"
  },
  {
    "PostalCode": "4130",
    "City": "Viby Sjælland"
  },
  {
    "PostalCode": "4140",
    "City": "Borup"
  },
  {
    "PostalCode": "4160",
    "City": "Herlufmagle"
  },
  {
    "PostalCode": "4171",
    "City": "Glumsø"
  },
  {
    "PostalCode": "4173",
    "City": "Fjenneslev"
  },
  {
    "PostalCode": "4174",
    "City": "Jystrup Midtsj"
  },
  {
    "PostalCode": "4180",
    "City": "Sorø"
  },
  {
    "PostalCode": "4190",
    "City": "Munke Bjergby"
  },
  {
    "PostalCode": "4200",
    "City": "Slagelse"
  },
  {
    "PostalCode": "4220",
    "City": "Korsør"
  },
  {
    "PostalCode": "4230",
    "City": "Skælskør"
  },
  {
    "PostalCode": "4241",
    "City": "Vemmelev"
  },
  {
    "PostalCode": "4242",
    "City": "Boeslunde"
  },
  {
    "PostalCode": "4243",
    "City": "Rude"
  },
  {
    "PostalCode": "4244",
    "City": "Agersø"
  },
  {
    "PostalCode": "4245",
    "City": "Omø"
  },
  {
    "PostalCode": "4250",
    "City": "Fuglebjerg"
  },
  {
    "PostalCode": "4261",
    "City": "Dalmose"
  },
  {
    "PostalCode": "4262",
    "City": "Sandved"
  },
  {
    "PostalCode": "4270",
    "City": "Høng"
  },
  {
    "PostalCode": "4281",
    "City": "Gørlev"
  },
  {
    "PostalCode": "4291",
    "City": "Ruds Vedby"
  },
  {
    "PostalCode": "4293",
    "City": "Dianalund"
  },
  {
    "PostalCode": "4295",
    "City": "Stenlille"
  },
  {
    "PostalCode": "4296",
    "City": "Nyrup"
  },
  {
    "PostalCode": "4300",
    "City": "Holbæk"
  },
  {
    "PostalCode": "4305",
    "City": "Orø"
  },
  {
    "PostalCode": "4320",
    "City": "Lejre"
  },
  {
    "PostalCode": "4330",
    "City": "Hvalsø"
  },
  {
    "PostalCode": "4340",
    "City": "Tølløse"
  },
  {
    "PostalCode": "4350",
    "City": "Ugerløse"
  },
  {
    "PostalCode": "4360",
    "City": "Kirke Eskilstrup"
  },
  {
    "PostalCode": "4370",
    "City": "Store Merløse"
  },
  {
    "PostalCode": "4390",
    "City": "Vipperød"
  },
  {
    "PostalCode": "4400",
    "City": "Kalundborg"
  },
  {
    "PostalCode": "4420",
    "City": "Regstrup"
  },
  {
    "PostalCode": "4440",
    "City": "Mørkøv"
  },
  {
    "PostalCode": "4450",
    "City": "Jyderup"
  },
  {
    "PostalCode": "4460",
    "City": "Snertinge"
  },
  {
    "PostalCode": "4470",
    "City": "Svebølle"
  },
  {
    "PostalCode": "4480",
    "City": "Store Fuglede"
  },
  {
    "PostalCode": "4490",
    "City": "Jerslev Sjælland"
  },
  {
    "PostalCode": "4500",
    "City": "Nykøbing Sj"
  },
  {
    "PostalCode": "4520",
    "City": "Svinninge"
  },
  {
    "PostalCode": "4532",
    "City": "Gislinge"
  },
  {
    "PostalCode": "4534",
    "City": "Hørve"
  },
  {
    "PostalCode": "4540",
    "City": "Fårevejle"
  },
  {
    "PostalCode": "4550",
    "City": "Asnæs"
  },
  {
    "PostalCode": "4560",
    "City": "Vig"
  },
  {
    "PostalCode": "4571",
    "City": "Grevinge"
  },
  {
    "PostalCode": "4572",
    "City": "Nørre Asmindrup"
  },
  {
    "PostalCode": "4573",
    "City": "Højby"
  },
  {
    "PostalCode": "4581",
    "City": "Rørvig"
  },
  {
    "PostalCode": "4583",
    "City": "Sjællands Odde"
  },
  {
    "PostalCode": "4591",
    "City": "Føllenslev"
  },
  {
    "PostalCode": "4592",
    "City": "Sejerø"
  },
  {
    "PostalCode": "4593",
    "City": "Eskebjerg"
  },
  {
    "PostalCode": "4600",
    "City": "Køge"
  },
  {
    "PostalCode": "4621",
    "City": "Gadstrup"
  },
  {
    "PostalCode": "4622",
    "City": "Havdrup"
  },
  {
    "PostalCode": "4623",
    "City": "Lille Skensved"
  },
  {
    "PostalCode": "4632",
    "City": "Bjæverskov"
  },
  {
    "PostalCode": "4640",
    "City": "Faxe"
  },
  {
    "PostalCode": "4652",
    "City": "Hårlev"
  },
  {
    "PostalCode": "4653",
    "City": "Karise"
  },
  {
    "PostalCode": "4654",
    "City": "Faxe Ladeplads"
  },
  {
    "PostalCode": "4660",
    "City": "Store Heddinge"
  },
  {
    "PostalCode": "4671",
    "City": "Strøby"
  },
  {
    "PostalCode": "4672",
    "City": "Klippinge"
  },
  {
    "PostalCode": "4673",
    "City": "Rødvig Stevns"
  },
  {
    "PostalCode": "4681",
    "City": "Herfølge"
  },
  {
    "PostalCode": "4682",
    "City": "Tureby"
  },
  {
    "PostalCode": "4683",
    "City": "Rønnede"
  },
  {
    "PostalCode": "4684",
    "City": "Holmegaard"
  },
  {
    "PostalCode": "4690",
    "City": "Haslev"
  },
  {
    "PostalCode": "4700",
    "City": "Næstved"
  },
  {
    "PostalCode": "4720",
    "City": "Præstø"
  },
  {
    "PostalCode": "4733",
    "City": "Tappernøje"
  },
  {
    "PostalCode": "4735",
    "City": "Mern"
  },
  {
    "PostalCode": "4736",
    "City": "Karrebæksminde"
  },
  {
    "PostalCode": "4750",
    "City": "Lundby"
  },
  {
    "PostalCode": "4760",
    "City": "Vordingborg"
  },
  {
    "PostalCode": "4771",
    "City": "Kalvehave"
  },
  {
    "PostalCode": "4772",
    "City": "Langebæk"
  },
  {
    "PostalCode": "4773",
    "City": "Stensved"
  },
  {
    "PostalCode": "4780",
    "City": "Stege"
  },
  {
    "PostalCode": "4791",
    "City": "Borre"
  },
  {
    "PostalCode": "4792",
    "City": "Askeby"
  },
  {
    "PostalCode": "4793",
    "City": "Bogø By"
  },
  {
    "PostalCode": "4800",
    "City": "Nykøbing F"
  },
  {
    "PostalCode": "4840",
    "City": "Nørre Alslev"
  },
  {
    "PostalCode": "4850",
    "City": "Stubbekøbing"
  },
  {
    "PostalCode": "4862",
    "City": "Guldborg"
  },
  {
    "PostalCode": "4863",
    "City": "Eskilstrup"
  },
  {
    "PostalCode": "4871",
    "City": "Horbelev"
  },
  {
    "PostalCode": "4872",
    "City": "Idestrup"
  },
  {
    "PostalCode": "4873",
    "City": "Væggerløse"
  },
  {
    "PostalCode": "4874",
    "City": "Gedser"
  },
  {
    "PostalCode": "4880",
    "City": "Nysted"
  },
  {
    "PostalCode": "4891",
    "City": "Toreby L"
  },
  {
    "PostalCode": "4892",
    "City": "Kettinge"
  },
  {
    "PostalCode": "4894",
    "City": "Øster Ulslev"
  },
  {
    "PostalCode": "4895",
    "City": "Errindlev"
  },
  {
    "PostalCode": "4900",
    "City": "Nakskov"
  },
  {
    "PostalCode": "4912",
    "City": "Harpelunde"
  },
  {
    "PostalCode": "4913",
    "City": "Horslunde"
  },
  {
    "PostalCode": "4920",
    "City": "Søllested"
  },
  {
    "PostalCode": "4930",
    "City": "Maribo"
  },
  {
    "PostalCode": "4941",
    "City": "Bandholm"
  },
  {
    "PostalCode": "4942",
    "City": "Askø"
  },
  {
    "PostalCode": "4943",
    "City": "Torrig L"
  },
  {
    "PostalCode": "4944",
    "City": "Fejø"
  },
  {
    "PostalCode": "4945",
    "City": "Femø"
  },
  {
    "PostalCode": "4951",
    "City": "Nørreballe"
  },
  {
    "PostalCode": "4952",
    "City": "Stokkemarke"
  },
  {
    "PostalCode": "4953",
    "City": "Vesterborg"
  },
  {
    "PostalCode": "4960",
    "City": "Holeby"
  },
  {
    "PostalCode": "4970",
    "City": "Rødby"
  },
  {
    "PostalCode": "4983",
    "City": "Dannemare"
  },
  {
    "PostalCode": "4990",
    "City": "Sakskøbing"
  },
  {
    "PostalCode": "5000",
    "City": "Odense C"
  },
  {
    "PostalCode": "5200",
    "City": "Odense V"
  },
  {
    "PostalCode": "5210",
    "City": "Odense NV"
  },
  {
    "PostalCode": "5220",
    "City": "Odense SØ"
  },
  {
    "PostalCode": "5230",
    "City": "Odense M"
  },
  {
    "PostalCode": "5240",
    "City": "Odense NØ"
  },
  {
    "PostalCode": "5250",
    "City": "Odense SV"
  },
  {
    "PostalCode": "5260",
    "City": "Odense S"
  },
  {
    "PostalCode": "5270",
    "City": "Odense N"
  },
  {
    "PostalCode": "5290",
    "City": "Marslev"
  },
  {
    "PostalCode": "5300",
    "City": "Kerteminde"
  },
  {
    "PostalCode": "5320",
    "City": "Agedrup"
  },
  {
    "PostalCode": "5330",
    "City": "Munkebo"
  },
  {
    "PostalCode": "5350",
    "City": "Rynkeby"
  },
  {
    "PostalCode": "5370",
    "City": "Mesinge"
  },
  {
    "PostalCode": "5380",
    "City": "Dalby"
  },
  {
    "PostalCode": "5390",
    "City": "Martofte"
  },
  {
    "PostalCode": "5400",
    "City": "Bogense"
  },
  {
    "PostalCode": "5450",
    "City": "Otterup"
  },
  {
    "PostalCode": "5462",
    "City": "Morud"
  },
  {
    "PostalCode": "5463",
    "City": "Harndrup"
  },
  {
    "PostalCode": "5464",
    "City": "Brenderup Fyn"
  },
  {
    "PostalCode": "5466",
    "City": "Asperup"
  },
  {
    "PostalCode": "5471",
    "City": "Søndersø"
  },
  {
    "PostalCode": "5474",
    "City": "Veflinge"
  },
  {
    "PostalCode": "5485",
    "City": "Skamby"
  },
  {
    "PostalCode": "5491",
    "City": "Blommenslyst"
  },
  {
    "PostalCode": "5492",
    "City": "Vissenbjerg"
  },
  {
    "PostalCode": "5500",
    "City": "Middelfart"
  },
  {
    "PostalCode": "5540",
    "City": "Ullerslev"
  },
  {
    "PostalCode": "5550",
    "City": "Langeskov"
  },
  {
    "PostalCode": "5560",
    "City": "Aarup"
  },
  {
    "PostalCode": "5580",
    "City": "Nørre Aaby"
  },
  {
    "PostalCode": "5591",
    "City": "Gelsted"
  },
  {
    "PostalCode": "5592",
    "City": "Ejby"
  },
  {
    "PostalCode": "5600",
    "City": "Faaborg"
  },
  {
    "PostalCode": "5601",
    "City": "Lyø"
  },
  {
    "PostalCode": "5602",
    "City": "Avernakø"
  },
  {
    "PostalCode": "5603",
    "City": "Bjørnø"
  },
  {
    "PostalCode": "5610",
    "City": "Assens"
  },
  {
    "PostalCode": "5620",
    "City": "Glamsbjerg"
  },
  {
    "PostalCode": "5631",
    "City": "Ebberup"
  },
  {
    "PostalCode": "5642",
    "City": "Millinge"
  },
  {
    "PostalCode": "5672",
    "City": "Broby"
  },
  {
    "PostalCode": "5683",
    "City": "Haarby"
  },
  {
    "PostalCode": "5690",
    "City": "Tommerup"
  },
  {
    "PostalCode": "5700",
    "City": "Svendborg"
  },
  {
    "PostalCode": "5750",
    "City": "Ringe"
  },
  {
    "PostalCode": "5762",
    "City": "Vester Skerninge"
  },
  {
    "PostalCode": "5771",
    "City": "Stenstrup"
  },
  {
    "PostalCode": "5772",
    "City": "Kværndrup"
  },
  {
    "PostalCode": "5792",
    "City": "Årslev"
  },
  {
    "PostalCode": "5800",
    "City": "Nyborg"
  },
  {
    "PostalCode": "5853",
    "City": "Ørbæk"
  },
  {
    "PostalCode": "5854",
    "City": "Gislev"
  },
  {
    "PostalCode": "5856",
    "City": "Ryslinge"
  },
  {
    "PostalCode": "5863",
    "City": "Ferritslev Fyn"
  },
  {
    "PostalCode": "5871",
    "City": "Frørup"
  },
  {
    "PostalCode": "5874",
    "City": "Hesselager"
  },
  {
    "PostalCode": "5881",
    "City": "Skårup Fyn"
  },
  {
    "PostalCode": "5882",
    "City": "Vejstrup"
  },
  {
    "PostalCode": "5883",
    "City": "Oure"
  },
  {
    "PostalCode": "5884",
    "City": "Gudme"
  },
  {
    "PostalCode": "5892",
    "City": "Gudbjerg Sydfyn"
  },
  {
    "PostalCode": "5900",
    "City": "Rudkøbing"
  },
  {
    "PostalCode": "5932",
    "City": "Humble"
  },
  {
    "PostalCode": "5935",
    "City": "Bagenkop"
  },
  {
    "PostalCode": "5943",
    "City": "Strynø"
  },
  {
    "PostalCode": "5953",
    "City": "Tranekær"
  },
  {
    "PostalCode": "5960",
    "City": "Marstal"
  },
  {
    "PostalCode": "5965",
    "City": "Birkholm"
  },
  {
    "PostalCode": "5970",
    "City": "Ærøskøbing"
  },
  {
    "PostalCode": "5985",
    "City": "Søby Ærø"
  },
  {
    "PostalCode": "6000",
    "City": "Kolding"
  },
  {
    "PostalCode": "6040",
    "City": "Egtved"
  },
  {
    "PostalCode": "6051",
    "City": "Almind"
  },
  {
    "PostalCode": "6052",
    "City": "Viuf"
  },
  {
    "PostalCode": "6064",
    "City": "Jordrup"
  },
  {
    "PostalCode": "6070",
    "City": "Christiansfeld"
  },
  {
    "PostalCode": "6091",
    "City": "Bjert"
  },
  {
    "PostalCode": "6092",
    "City": "Sønder Stenderup"
  },
  {
    "PostalCode": "6093",
    "City": "Sjølund"
  },
  {
    "PostalCode": "6094",
    "City": "Hejls"
  },
  {
    "PostalCode": "6100",
    "City": "Haderslev"
  },
  {
    "PostalCode": "6200",
    "City": "Aabenraa"
  },
  {
    "PostalCode": "6210",
    "City": "Barsø"
  },
  {
    "PostalCode": "6230",
    "City": "Rødekro"
  },
  {
    "PostalCode": "6240",
    "City": "Løgumkloster"
  },
  {
    "PostalCode": "6261",
    "City": "Bredebro"
  },
  {
    "PostalCode": "6270",
    "City": "Tønder"
  },
  {
    "PostalCode": "6280",
    "City": "Højer"
  },
  {
    "PostalCode": "6300",
    "City": "Gråsten"
  },
  {
    "PostalCode": "6310",
    "City": "Broager"
  },
  {
    "PostalCode": "6320",
    "City": "Egernsund"
  },
  {
    "PostalCode": "6330",
    "City": "Padborg"
  },
  {
    "PostalCode": "6340",
    "City": "Kruså"
  },
  {
    "PostalCode": "6360",
    "City": "Tinglev"
  },
  {
    "PostalCode": "6372",
    "City": "Bylderup-Bov"
  },
  {
    "PostalCode": "6392",
    "City": "Bolderslev"
  },
  {
    "PostalCode": "6400",
    "City": "Sønderborg"
  },
  {
    "PostalCode": "6430",
    "City": "Nordborg"
  },
  {
    "PostalCode": "6440",
    "City": "Augustenborg"
  },
  {
    "PostalCode": "6470",
    "City": "Sydals"
  },
  {
    "PostalCode": "6500",
    "City": "Vojens"
  },
  {
    "PostalCode": "6510",
    "City": "Gram"
  },
  {
    "PostalCode": "6520",
    "City": "Toftlund"
  },
  {
    "PostalCode": "6534",
    "City": "Agerskov"
  },
  {
    "PostalCode": "6535",
    "City": "Branderup J"
  },
  {
    "PostalCode": "6541",
    "City": "Bevtoft"
  },
  {
    "PostalCode": "6560",
    "City": "Sommersted"
  },
  {
    "PostalCode": "6580",
    "City": "Vamdrup"
  },
  {
    "PostalCode": "6600",
    "City": "Vejen"
  },
  {
    "PostalCode": "6621",
    "City": "Gesten"
  },
  {
    "PostalCode": "6622",
    "City": "Bække"
  },
  {
    "PostalCode": "6623",
    "City": "Vorbasse"
  },
  {
    "PostalCode": "6630",
    "City": "Rødding"
  },
  {
    "PostalCode": "6640",
    "City": "Lunderskov"
  },
  {
    "PostalCode": "6650",
    "City": "Brørup"
  },
  {
    "PostalCode": "6660",
    "City": "Lintrup"
  },
  {
    "PostalCode": "6670",
    "City": "Holsted"
  },
  {
    "PostalCode": "6682",
    "City": "Hovborg"
  },
  {
    "PostalCode": "6683",
    "City": "Føvling"
  },
  {
    "PostalCode": "6690",
    "City": "Gørding"
  },
  {
    "PostalCode": "6700",
    "City": "Esbjerg"
  },
  {
    "PostalCode": "6705",
    "City": "Esbjerg Ø"
  },
  {
    "PostalCode": "6710",
    "City": "Esbjerg V"
  },
  {
    "PostalCode": "6715",
    "City": "Esbjerg N"
  },
  {
    "PostalCode": "6720",
    "City": "Fanø"
  },
  {
    "PostalCode": "6731",
    "City": "Tjæreborg"
  },
  {
    "PostalCode": "6740",
    "City": "Bramming"
  },
  {
    "PostalCode": "6752",
    "City": "Glejbjerg"
  },
  {
    "PostalCode": "6753",
    "City": "Agerbæk"
  },
  {
    "PostalCode": "6760",
    "City": "Ribe"
  },
  {
    "PostalCode": "6771",
    "City": "Gredstedbro"
  },
  {
    "PostalCode": "6780",
    "City": "Skærbæk"
  },
  {
    "PostalCode": "6792",
    "City": "Rømø"
  },
  {
    "PostalCode": "6800",
    "City": "Varde"
  },
  {
    "PostalCode": "6818",
    "City": "Årre"
  },
  {
    "PostalCode": "6823",
    "City": "Ansager"
  },
  {
    "PostalCode": "6830",
    "City": "Nørre Nebel"
  },
  {
    "PostalCode": "6840",
    "City": "Oksbøl"
  },
  {
    "PostalCode": "6851",
    "City": "Janderup Vestj"
  },
  {
    "PostalCode": "6852",
    "City": "Billum"
  },
  {
    "PostalCode": "6853",
    "City": "Vejers Strand"
  },
  {
    "PostalCode": "6854",
    "City": "Henne"
  },
  {
    "PostalCode": "6855",
    "City": "Outrup"
  },
  {
    "PostalCode": "6857",
    "City": "Blåvand"
  },
  {
    "PostalCode": "6862",
    "City": "Tistrup"
  },
  {
    "PostalCode": "6870",
    "City": "Ølgod"
  },
  {
    "PostalCode": "6880",
    "City": "Tarm"
  },
  {
    "PostalCode": "6893",
    "City": "Hemmet"
  },
  {
    "PostalCode": "6900",
    "City": "Skjern"
  },
  {
    "PostalCode": "6920",
    "City": "Videbæk"
  },
  {
    "PostalCode": "6933",
    "City": "Kibæk"
  },
  {
    "PostalCode": "6940",
    "City": "Lem St"
  },
  {
    "PostalCode": "6950",
    "City": "Ringkøbing"
  },
  {
    "PostalCode": "6960",
    "City": "Hvide Sande"
  },
  {
    "PostalCode": "6971",
    "City": "Spjald"
  },
  {
    "PostalCode": "6973",
    "City": "Ørnhøj"
  },
  {
    "PostalCode": "6980",
    "City": "Tim"
  },
  {
    "PostalCode": "6990",
    "City": "Ulfborg"
  },
  {
    "PostalCode": "7000",
    "City": "Fredericia"
  },
  {
    "PostalCode": "7080",
    "City": "Børkop"
  },
  {
    "PostalCode": "7100",
    "City": "Vejle"
  },
  {
    "PostalCode": "7120",
    "City": "Vejle Øst"
  },
  {
    "PostalCode": "7130",
    "City": "Juelsminde"
  },
  {
    "PostalCode": "7140",
    "City": "Stouby"
  },
  {
    "PostalCode": "7150",
    "City": "Barrit"
  },
  {
    "PostalCode": "7160",
    "City": "Tørring"
  },
  {
    "PostalCode": "7171",
    "City": "Uldum"
  },
  {
    "PostalCode": "7173",
    "City": "Vonge"
  },
  {
    "PostalCode": "7182",
    "City": "Bredsten"
  },
  {
    "PostalCode": "7183",
    "City": "Randbøl"
  },
  {
    "PostalCode": "7184",
    "City": "Vandel"
  },
  {
    "PostalCode": "7190",
    "City": "Billund"
  },
  {
    "PostalCode": "7200",
    "City": "Grindsted"
  },
  {
    "PostalCode": "7250",
    "City": "Hejnsvig"
  },
  {
    "PostalCode": "7260",
    "City": "Sønder Omme"
  },
  {
    "PostalCode": "7270",
    "City": "Stakroge"
  },
  {
    "PostalCode": "7280",
    "City": "Sønder Felding"
  },
  {
    "PostalCode": "7300",
    "City": "Jelling"
  },
  {
    "PostalCode": "7321",
    "City": "Gadbjerg"
  },
  {
    "PostalCode": "7323",
    "City": "Give"
  },
  {
    "PostalCode": "7330",
    "City": "Brande"
  },
  {
    "PostalCode": "7361",
    "City": "Ejstrupholm"
  },
  {
    "PostalCode": "7362",
    "City": "Hampen"
  },
  {
    "PostalCode": "7400",
    "City": "Herning"
  },
  {
    "PostalCode": "7430",
    "City": "Ikast"
  },
  {
    "PostalCode": "7441",
    "City": "Bording"
  },
  {
    "PostalCode": "7442",
    "City": "Engesvang"
  },
  {
    "PostalCode": "7451",
    "City": "Sunds"
  },
  {
    "PostalCode": "7470",
    "City": "Karup J"
  },
  {
    "PostalCode": "7480",
    "City": "Vildbjerg"
  },
  {
    "PostalCode": "7490",
    "City": "Aulum"
  },
  {
    "PostalCode": "7500",
    "City": "Holstebro"
  },
  {
    "PostalCode": "7540",
    "City": "Haderup"
  },
  {
    "PostalCode": "7550",
    "City": "Sørvad"
  },
  {
    "PostalCode": "7560",
    "City": "Hjerm"
  },
  {
    "PostalCode": "7570",
    "City": "Vemb"
  },
  {
    "PostalCode": "7600",
    "City": "Struer"
  },
  {
    "PostalCode": "7620",
    "City": "Lemvig"
  },
  {
    "PostalCode": "7650",
    "City": "Bøvlingbjerg"
  },
  {
    "PostalCode": "7660",
    "City": "Bækmarksbro"
  },
  {
    "PostalCode": "7673",
    "City": "Harboøre"
  },
  {
    "PostalCode": "7680",
    "City": "Thyborøn"
  },
  {
    "PostalCode": "7700",
    "City": "Thisted"
  },
  {
    "PostalCode": "7730",
    "City": "Hanstholm"
  },
  {
    "PostalCode": "7741",
    "City": "Frøstrup"
  },
  {
    "PostalCode": "7742",
    "City": "Vesløs"
  },
  {
    "PostalCode": "7752",
    "City": "Snedsted"
  },
  {
    "PostalCode": "7755",
    "City": "Bedsted Thy"
  },
  {
    "PostalCode": "7760",
    "City": "Hurup Thy"
  },
  {
    "PostalCode": "7770",
    "City": "Vestervig"
  },
  {
    "PostalCode": "7790",
    "City": "Thyholm"
  },
  {
    "PostalCode": "7800",
    "City": "Skive"
  },
  {
    "PostalCode": "7830",
    "City": "Vinderup"
  },
  {
    "PostalCode": "7840",
    "City": "Højslev"
  },
  {
    "PostalCode": "7850",
    "City": "Stoholm Jyll"
  },
  {
    "PostalCode": "7860",
    "City": "Spøttrup"
  },
  {
    "PostalCode": "7870",
    "City": "Roslev"
  },
  {
    "PostalCode": "7884",
    "City": "Fur"
  },
  {
    "PostalCode": "7900",
    "City": "Nykøbing M"
  },
  {
    "PostalCode": "7950",
    "City": "Erslev"
  },
  {
    "PostalCode": "7960",
    "City": "Karby"
  },
  {
    "PostalCode": "7970",
    "City": "Redsted M"
  },
  {
    "PostalCode": "7980",
    "City": "Vils"
  },
  {
    "PostalCode": "7990",
    "City": "Øster Assels"
  },
  {
    "PostalCode": "8000",
    "City": "Aarhus C"
  },
  {
    "PostalCode": "8200",
    "City": "Aarhus N"
  },
  {
    "PostalCode": "8210",
    "City": "Aarhus V"
  },
  {
    "PostalCode": "8220",
    "City": "Brabrand"
  },
  {
    "PostalCode": "8230",
    "City": "Åbyhøj"
  },
  {
    "PostalCode": "8240",
    "City": "Risskov"
  },
  {
    "PostalCode": "8250",
    "City": "Egå"
  },
  {
    "PostalCode": "8260",
    "City": "Viby J"
  },
  {
    "PostalCode": "8270",
    "City": "Højbjerg"
  },
  {
    "PostalCode": "8300",
    "City": "Odder"
  },
  {
    "PostalCode": "8305",
    "City": "Samsø"
  },
  {
    "PostalCode": "8310",
    "City": "Tranbjerg J"
  },
  {
    "PostalCode": "8320",
    "City": "Mårslet"
  },
  {
    "PostalCode": "8330",
    "City": "Beder"
  },
  {
    "PostalCode": "8340",
    "City": "Malling"
  },
  {
    "PostalCode": "8350",
    "City": "Hundslund"
  },
  {
    "PostalCode": "8355",
    "City": "Solbjerg"
  },
  {
    "PostalCode": "8361",
    "City": "Hasselager"
  },
  {
    "PostalCode": "8362",
    "City": "Hørning"
  },
  {
    "PostalCode": "8370",
    "City": "Hadsten"
  },
  {
    "PostalCode": "8380",
    "City": "Trige"
  },
  {
    "PostalCode": "8381",
    "City": "Tilst"
  },
  {
    "PostalCode": "8382",
    "City": "Hinnerup"
  },
  {
    "PostalCode": "8400",
    "City": "Ebeltoft"
  },
  {
    "PostalCode": "8410",
    "City": "Rønde"
  },
  {
    "PostalCode": "8420",
    "City": "Knebel"
  },
  {
    "PostalCode": "8444",
    "City": "Balle"
  },
  {
    "PostalCode": "8450",
    "City": "Hammel"
  },
  {
    "PostalCode": "8462",
    "City": "Harlev J"
  },
  {
    "PostalCode": "8464",
    "City": "Galten"
  },
  {
    "PostalCode": "8471",
    "City": "Sabro"
  },
  {
    "PostalCode": "8472",
    "City": "Sporup"
  },
  {
    "PostalCode": "8500",
    "City": "Grenaa"
  },
  {
    "PostalCode": "8520",
    "City": "Lystrup"
  },
  {
    "PostalCode": "8530",
    "City": "Hjortshøj"
  },
  {
    "PostalCode": "8541",
    "City": "Skødstrup"
  },
  {
    "PostalCode": "8543",
    "City": "Hornslet"
  },
  {
    "PostalCode": "8544",
    "City": "Mørke"
  },
  {
    "PostalCode": "8550",
    "City": "Ryomgård"
  },
  {
    "PostalCode": "8560",
    "City": "Kolind"
  },
  {
    "PostalCode": "8570",
    "City": "Trustrup"
  },
  {
    "PostalCode": "8581",
    "City": "Nimtofte"
  },
  {
    "PostalCode": "8585",
    "City": "Glesborg"
  },
  {
    "PostalCode": "8586",
    "City": "Ørum Djurs"
  },
  {
    "PostalCode": "8592",
    "City": "Anholt"
  },
  {
    "PostalCode": "8600",
    "City": "Silkeborg"
  },
  {
    "PostalCode": "8620",
    "City": "Kjellerup"
  },
  {
    "PostalCode": "8632",
    "City": "Lemming"
  },
  {
    "PostalCode": "8641",
    "City": "Sorring"
  },
  {
    "PostalCode": "8643",
    "City": "Ans By"
  },
  {
    "PostalCode": "8653",
    "City": "Them"
  },
  {
    "PostalCode": "8654",
    "City": "Bryrup"
  },
  {
    "PostalCode": "8660",
    "City": "Skanderborg"
  },
  {
    "PostalCode": "8670",
    "City": "Låsby"
  },
  {
    "PostalCode": "8680",
    "City": "Ry"
  },
  {
    "PostalCode": "8700",
    "City": "Horsens"
  },
  {
    "PostalCode": "8721",
    "City": "Daugård"
  },
  {
    "PostalCode": "8722",
    "City": "Hedensted"
  },
  {
    "PostalCode": "8723",
    "City": "Løsning"
  },
  {
    "PostalCode": "8732",
    "City": "Hovedgård"
  },
  {
    "PostalCode": "8740",
    "City": "Brædstrup"
  },
  {
    "PostalCode": "8751",
    "City": "Gedved"
  },
  {
    "PostalCode": "8752",
    "City": "Østbirk"
  },
  {
    "PostalCode": "8762",
    "City": "Flemming"
  },
  {
    "PostalCode": "8763",
    "City": "Rask Mølle"
  },
  {
    "PostalCode": "8765",
    "City": "Klovborg"
  },
  {
    "PostalCode": "8766",
    "City": "Nørre Snede"
  },
  {
    "PostalCode": "8781",
    "City": "Stenderup"
  },
  {
    "PostalCode": "8783",
    "City": "Hornsyld"
  },
  {
    "PostalCode": "8789",
    "City": "Endelave"
  },
  {
    "PostalCode": "8799",
    "City": "Tunø"
  },
  {
    "PostalCode": "8800",
    "City": "Viborg"
  },
  {
    "PostalCode": "8830",
    "City": "Tjele"
  },
  {
    "PostalCode": "8831",
    "City": "Løgstrup"
  },
  {
    "PostalCode": "8832",
    "City": "Skals"
  },
  {
    "PostalCode": "8840",
    "City": "Rødkærsbro"
  },
  {
    "PostalCode": "8850",
    "City": "Bjerringbro"
  },
  {
    "PostalCode": "8860",
    "City": "Ulstrup"
  },
  {
    "PostalCode": "8870",
    "City": "Langå"
  },
  {
    "PostalCode": "8881",
    "City": "Thorsø"
  },
  {
    "PostalCode": "8882",
    "City": "Fårvang"
  },
  {
    "PostalCode": "8883",
    "City": "Gjern"
  },
  {
    "PostalCode": "8900",
    "City": "Randers C"
  },
  {
    "PostalCode": "8920",
    "City": "Randers NV"
  },
  {
    "PostalCode": "8930",
    "City": "Randers NØ"
  },
  {
    "PostalCode": "8940",
    "City": "Randers SV"
  },
  {
    "PostalCode": "8950",
    "City": "Ørsted"
  },
  {
    "PostalCode": "8960",
    "City": "Randers SØ"
  },
  {
    "PostalCode": "8961",
    "City": "Allingåbro"
  },
  {
    "PostalCode": "8963",
    "City": "Auning"
  },
  {
    "PostalCode": "8970",
    "City": "Havndal"
  },
  {
    "PostalCode": "8981",
    "City": "Spentrup"
  },
  {
    "PostalCode": "8983",
    "City": "Gjerlev J"
  },
  {
    "PostalCode": "8990",
    "City": "Fårup"
  },
  {
    "PostalCode": "9000",
    "City": "Aalborg"
  },
  {
    "PostalCode": "9200",
    "City": "Aalborg SV"
  },
  {
    "PostalCode": "9210",
    "City": "Aalborg SØ"
  },
  {
    "PostalCode": "9220",
    "City": "Aalborg Øst"
  },
  {
    "PostalCode": "9230",
    "City": "Svenstrup J"
  },
  {
    "PostalCode": "9240",
    "City": "Nibe"
  },
  {
    "PostalCode": "9260",
    "City": "Gistrup"
  },
  {
    "PostalCode": "9270",
    "City": "Klarup"
  },
  {
    "PostalCode": "9280",
    "City": "Storvorde"
  },
  {
    "PostalCode": "9293",
    "City": "Kongerslev"
  },
  {
    "PostalCode": "9300",
    "City": "Sæby"
  },
  {
    "PostalCode": "9310",
    "City": "Vodskov"
  },
  {
    "PostalCode": "9320",
    "City": "Hjallerup"
  },
  {
    "PostalCode": "9330",
    "City": "Dronninglund"
  },
  {
    "PostalCode": "9340",
    "City": "Asaa"
  },
  {
    "PostalCode": "9352",
    "City": "Dybvad"
  },
  {
    "PostalCode": "9362",
    "City": "Gandrup"
  },
  {
    "PostalCode": "9370",
    "City": "Hals"
  },
  {
    "PostalCode": "9380",
    "City": "Vestbjerg"
  },
  {
    "PostalCode": "9381",
    "City": "Sulsted"
  },
  {
    "PostalCode": "9382",
    "City": "Tylstrup"
  },
  {
    "PostalCode": "9400",
    "City": "Nørresundby"
  },
  {
    "PostalCode": "9430",
    "City": "Vadum"
  },
  {
    "PostalCode": "9440",
    "City": "Aabybro"
  },
  {
    "PostalCode": "9460",
    "City": "Brovst"
  },
  {
    "PostalCode": "9480",
    "City": "Løkken"
  },
  {
    "PostalCode": "9490",
    "City": "Pandrup"
  },
  {
    "PostalCode": "9492",
    "City": "Blokhus"
  },
  {
    "PostalCode": "9493",
    "City": "Saltum"
  },
  {
    "PostalCode": "9500",
    "City": "Hobro"
  },
  {
    "PostalCode": "9510",
    "City": "Arden"
  },
  {
    "PostalCode": "9520",
    "City": "Skørping"
  },
  {
    "PostalCode": "9530",
    "City": "Støvring"
  },
  {
    "PostalCode": "9541",
    "City": "Suldrup"
  },
  {
    "PostalCode": "9550",
    "City": "Mariager"
  },
  {
    "PostalCode": "9560",
    "City": "Hadsund"
  },
  {
    "PostalCode": "9574",
    "City": "Bælum"
  },
  {
    "PostalCode": "9575",
    "City": "Terndrup"
  },
  {
    "PostalCode": "9600",
    "City": "Aars"
  },
  {
    "PostalCode": "9610",
    "City": "Nørager"
  },
  {
    "PostalCode": "9620",
    "City": "Aalestrup"
  },
  {
    "PostalCode": "9631",
    "City": "Gedsted"
  },
  {
    "PostalCode": "9632",
    "City": "Møldrup"
  },
  {
    "PostalCode": "9640",
    "City": "Farsø"
  },
  {
    "PostalCode": "9670",
    "City": "Løgstør"
  },
  {
    "PostalCode": "9681",
    "City": "Ranum"
  },
  {
    "PostalCode": "9690",
    "City": "Fjerritslev"
  },
  {
    "PostalCode": "9700",
    "City": "Brønderslev"
  },
  {
    "PostalCode": "9740",
    "City": "Jerslev J"
  },
  {
    "PostalCode": "9750",
    "City": "Østervrå"
  },
  {
    "PostalCode": "9760",
    "City": "Vrå"
  },
  {
    "PostalCode": "9800",
    "City": "Hjørring"
  },
  {
    "PostalCode": "9830",
    "City": "Tårs"
  },
  {
    "PostalCode": "9850",
    "City": "Hirtshals"
  },
  {
    "PostalCode": "9870",
    "City": "Sindal"
  },
  {
    "PostalCode": "9881",
    "City": "Bindslev"
  },
  {
    "PostalCode": "9900",
    "City": "Frederikshavn"
  },
  {
    "PostalCode": "9940",
    "City": "Læsø"
  },
  {
    "PostalCode": "9970",
    "City": "Strandby"
  },
  {
    "PostalCode": "9981",
    "City": "Jerup"
  },
  {
    "PostalCode": "9982",
    "City": "Ålbæk"
  },
  {
    "PostalCode": "9990",
    "City": "Skagen"
  }
]